ONEWEB-0578             
1 56067U 23043X   24203.60496081  .00000044  00000+0  75866-4 0  9994
2 56067  87.9280  22.4418 0001907  94.9060 265.2291 13.21825196 66340
ONEWEB-0579             
1 56068U 23043Y   24203.51980708  .00000087  00000+0  17859-3 0  9993
2 56068  87.9277  22.4552 0001889  77.6106 282.5240 13.21826254 66346
ONEWEB-0581             
1 56069U 23043Z   24203.47409581  .00000005  00000+0 -19817-4 0  9992
2 56069  87.9110   7.3050 0002346  87.1287 273.0112 13.16594246 67412
ONEWEB-0609             
1 56070U 23043AA  24203.56343249 -.00000059  00000+0 -19043-3 0  9992
2 56070  87.9017  37.6422 0001681  85.4407 274.6916 13.15548009 64977
ONEWEB-0613             
1 56071U 23043AB  24203.55867896 -.00000053  00000+0 -17540-3 0  9995
2 56071  87.9022  37.6407 0001725  75.8139 284.3183 13.15547730 64975
ONEWEB-0630             
1 56072U 23043AC  24203.55392765 -.00000022  00000+0 -93282-4 0  9998
2 56072  87.9018  37.6315 0001609  74.6218 285.5090 13.15548569 64965
ONEWEB-0632             
1 56073U 23043AD  24203.54916921  .00000105  00000+0  24354-3 0  9997
2 56073  87.9018  37.6513 0002111  81.8845 278.2525 13.15550127 64966
ONEWEB-0633             
1 56074U 23043AE  24203.54282738  .00000110  00000+0  25791-3 0  9992
2 56074  87.9015  37.6329 0001416  71.1782 288.9502 13.15548410 65852
